{
  "type": "FeatureCollection",
  "features": [
    {
      "type": "Feature",
      "properties": {
        "norad_id": 24946,
        "name": "IRIDIUM 33",
        "group": "iridium-33-debris",
        "lat": -47.440842485532414,
        "lon": 60.898280423271956,
        "alt_km": 786.1119508750799,
        "timestamp": "2025-12-20T18:51:32.097725+00:00",
        "meta_object_name": "IRIDIUM 33",
        "meta_object_id": "1997-051C",
        "meta_epoch": "2025-12-20T05:41:33.469152",
        "meta_mean_motion": 14.35042342,
        "meta_eccentricity": 0.0007926,
        "meta_inclination": 86.3865,
        "meta_ra_of_asc_node": 65.0747,
        "meta_arg_of_pericenter": 175.124,
        "meta_mean_anomaly": 185.0035,
        "meta_ephemeris_type": 0,
        "meta_classification_type": "U",
        "meta_norad_cat_id": 24946,
        "meta_element_set_no": 999,
        "meta_rev_at_epoch": 47942,
        "meta_bstar": 8.8822e-05,
        "meta_mean_motion_dot": 2.73e-06,
        "meta_mean_motion_ddot": 0,
        "tle_line1": "1 24946U 97051C   25354.23719293  .00000273  00000+0  88822-4 0  9995",
        "tle_line2": "2 24946  86.3865  65.0747 0007926 175.1240 185.0035 14.35042342479422"
      },
      "geometry": {
        "type": "Point",
        "coordinates": [
          60.898280423271956,
          -47.440842485532414
        ]
      }
    },
    {
      "type": "Feature",
      "properties": {
        "norad_id": 33773,
        "name": "IRIDIUM 33 DEB",
        "group": "iridium-33-debris",
        "lat": 32.40026905964477,
        "lon": -125.10986296526727,
        "alt_km": 737.3694602049527,
        "timestamp": "2025-12-20T18:51:32.097763+00:00",
        "meta_object_name": "IRIDIUM 33 DEB",
        "meta_object_id": "1997-051L",
        "meta_epoch": "2025-12-20T14:51:03.588192",
        "meta_mean_motion": 14.43272103,
        "meta_eccentricity": 0.00131023,
        "meta_inclination": 86.4001,
        "meta_ra_of_asc_node": 57.2506,
        "meta_arg_of_pericenter": 123.5975,
        "meta_mean_anomaly": 236.6478,
        "meta_ephemeris_type": 0,
        "meta_classification_type": "U",
        "meta_norad_cat_id": 33773,
        "meta_element_set_no": 999,
        "meta_rev_at_epoch": 88461,
        "meta_bstar": 0.00020040866,
        "meta_mean_motion_dot": 6.95e-06,
        "meta_mean_motion_ddot": 0,
        "tle_line1": "1 33773U 97051L   25354.61879153  .00000695  00000+0  20041-3 0  9993",
        "tle_line2": "2 33773  86.4001  57.2506 0013102 123.5975 236.6478 14.43272103884618"
      },
      "geometry": {
        "type": "Point",
        "coordinates": [
          -125.10986296526727,
          32.40026905964477
        ]
      }
    },
    {
      "type": "Feature",
      "properties": {
        "norad_id": 33775,
        "name": "IRIDIUM 33 DEB",
        "group": "iridium-33-debris",
        "lat": 0.5940789138489035,
        "lon": -133.91938091899814,
        "alt_km": 749.5265456283068,
        "timestamp": "2025-12-20T18:51:32.097780+00:00",
        "meta_object_name": "IRIDIUM 33 DEB",
        "meta_object_id": "1997-051N",
        "meta_epoch": "2025-12-20T09:46:27.262272",
        "meta_mean_motion": 14.41483487,
        "meta_eccentricity": 0.00150209,
        "meta_inclination": 86.3628,
        "meta_ra_of_asc_node": 46.28,
        "meta_arg_of_pericenter": 131.6576,
        "meta_mean_anomaly": 244.435,
        "meta_ephemeris_type": 0,
        "meta_classification_type": "U",
        "meta_norad_cat_id": 33775,
        "meta_element_set_no": 999,
        "meta_rev_at_epoch": 88251,
        "meta_bstar": 0.00022414804,
        "meta_mean_motion_dot": 7.48e-06,
        "meta_mean_motion_ddot": 0,
        "tle_line1": "1 33775U 97051N   25354.40725998  .00000748  00000+0  22415-3 0  9995",
        "tle_line2": "2 33775  86.3628  46.2800 0015020 131.6576 244.4350 14.41483487882517"
      },
      "geometry": {
        "type": "Point",
        "coordinates": [
          -133.91938091899814,
          0.5940789138489035
        ]
      }
    },
    {
      "type": "Feature",
      "properties": {
        "norad_id": 33776,
        "name": "IRIDIUM 33 DEB",
        "group": "iridium-33-debris",
        "lat": -44.62485915094567,
        "lon": 73.83798517011351,
        "alt_km": 780.5970229673367,
        "timestamp": "2025-12-20T18:51:32.097793+00:00",
        "meta_object_name": "IRIDIUM 33 DEB",
        "meta_object_id": "1997-051P",
        "meta_epoch": "2025-12-20T12:26:17.262240",
        "meta_mean_motion": 14.38247887,
        "meta_eccentricity": 0.00152475,
        "meta_inclination": 86.4034,
        "meta_ra_of_asc_node": 77.5094,
        "meta_arg_of_pericenter": 165.3741,
        "meta_mean_anomaly": 205.5713,
        "meta_ephemeris_type": 0,
        "meta_classification_type": "U",
        "meta_norad_cat_id": 33776,
        "meta_element_set_no": 999,
        "meta_rev_at_epoch": 88194,
        "meta_bstar": 0.00020630257,
        "meta_mean_motion_dot": 6.47e-06,
        "meta_mean_motion_ddot": 0,
        "tle_line1": "1 33776U 97051P   25354.51825535  .00000647  00000+0  20630-3 0  9991",
        "tle_line2": "2 33776  86.4034  77.5094 0015247 165.3741 205.5713 14.38247887881946"
      },
      "geometry": {
        "type": "Point",
        "coordinates": [
          73.83798517011351,
          -44.62485915094567
        ]
      }
    },
    {
      "type": "Feature",
      "properties": {
        "norad_id": 33777,
        "name": "IRIDIUM 33 DEB",
        "group": "iridium-33-debris",
        "lat": -66.07665490624528,
        "lon": -140.08675030210026,
        "alt_km": 711.0672906081854,
        "timestamp": "2025-12-20T18:51:32.097806+00:00",
        "meta_object_name": "IRIDIUM 33 DEB",
        "meta_object_id": "1997-051Q",
        "meta_epoch": "2025-12-20T12:46:53.076000",
        "meta_mean_motion": 14.55663152,
        "meta_eccentricity": 0.00057892,
        "meta_inclination": 86.3775,
        "meta_ra_of_asc_node": 31.8134,
        "meta_arg_of_pericenter": 214.9049,
        "meta_mean_anomaly": 145.178,
        "meta_ephemeris_type": 0,
        "meta_classification_type": "U",
        "meta_norad_cat_id": 33777,
        "meta_element_set_no": 999,
        "meta_rev_at_epoch": 88647,
        "meta_bstar": 0.00051288912,
        "meta_mean_motion_dot": 2.26e-05,
        "meta_mean_motion_ddot": 0,
        "tle_line1": "1 33777U 97051Q   25354.53255875  .00002260  00000+0  51289-3 0  9995",
        "tle_line2": "2 33777  86.3775  31.8134 0005789 214.9049 145.1780 14.55663152886470"
      },
      "geometry": {
        "type": "Point",
        "coordinates": [
          -140.08675030210026,
          -66.07665490624528
        ]
      }
    },
    {
      "type": "Feature",
      "properties": {
        "norad_id": 33850,
        "name": "IRIDIUM 33 DEB",
        "group": "iridium-33-debris",
        "lat": 0.10424043205440846,
        "lon": -153.28690239036996,
        "alt_km": 747.6432603323783,
        "timestamp": "2025-12-20T18:51:32.097818+00:00",
        "meta_object_name": "IRIDIUM 33 DEB",
        "meta_object_id": "1997-051T",
        "meta_epoch": "2025-12-20T13:44:57.157728",
        "meta_mean_motion": 14.42162689,
        "meta_eccentricity": 0.00129351,
        "meta_inclination": 86.341,
        "meta_ra_of_asc_node": 26.8113,
        "meta_arg_of_pericenter": 137.6039,
        "meta_mean_anomaly": 17.42,
        "meta_ephemeris_type": 0,
        "meta_classification_type": "U",
        "meta_norad_cat_id": 33850,
        "meta_element_set_no": 999,
        "meta_rev_at_epoch": 88265,
        "meta_bstar": 0.00025339454,
        "meta_mean_motion_dot": 8.54e-06,
        "meta_mean_motion_ddot": 0,
        "tle_line1": "1 33850U 97051T   25354.57288377  .00000854  00000+0  25339-3 0  9998",
        "tle_line2": "2 33850  86.3410  26.8113 0012935 137.6039  17.4200 14.42162689882659"
      },
      "geometry": {
        "type": "Point",
        "coordinates": [
          -153.28690239036996,
          0.10424043205440846
        ]
      }
    },
    {
      "type": "Feature",
      "properties": {
        "norad_id": 33853,
        "name": "IRIDIUM 33 DEB",
        "group": "iridium-33-debris",
        "lat": 36.60743496048989,
        "lon": -10.737709496443623,
        "alt_km": 1044.368811790595,
        "timestamp": "2025-12-20T18:51:32.097830+00:00",
        "meta_object_name": "IRIDIUM 33 DEB",
        "meta_object_id": "1997-051W",
        "meta_epoch": "2025-12-20T10:42:24.160608",
        "meta_mean_motion": 13.99101393,
        "meta_eccentricity": 0.02072613,
        "meta_inclination": 85.9998,
        "meta_ra_of_asc_node": 346.4315,
        "meta_arg_of_pericenter": 212.032,
        "meta_mean_anomaly": 275.1886,
        "meta_ephemeris_type": 0,
        "meta_classification_type": "U",
        "meta_norad_cat_id": 33853,
        "meta_element_set_no": 999,
        "meta_rev_at_epoch": 85453,
        "meta_bstar": 0.0010652469,
        "meta_mean_motion_dot": 1.87e-05,
        "meta_mean_motion_ddot": 0,
        "tle_line1": "1 33853U 97051W   25354.44611297  .00001870  00000+0  10652-2 0  9998",
        "tle_line2": "2 33853  85.9998 346.4315 0207261 212.0320 275.1886 13.99101393854537"
      },
      "geometry": {
        "type": "Point",
        "coordinates": [
          -10.737709496443623,
          36.60743496048989
        ]
      }
    }
  ]
}